ONEWEB-0298             
1 49087U 21075N   24031.84956708  .00000048  00000+0  89601-4 0  9999
2 49087  87.9234 178.3639 0001297 104.6102 255.5174 13.17651150120397
ONEWEB-0299             
1 49088U 21075P   24031.85114533  .00000079  00000+0  17096-3 0  9995
2 49088  87.9229 178.3390 0001171 103.4520 256.6742 13.17650329120354
ONEWEB-0300             
1 49089U 21075Q   24031.37253156  .00000025  00000+0  34304-4 0  9991
2 49089  87.9031 163.3371 0001602 114.2590 245.8706 13.12440744121371
ONEWEB-0301             
1 49090U 21075R   24031.81408113  .00000407  00000+0  10951-2 0  9991
2 49090  87.9033 163.2525 0001856 108.7095 251.4235 13.12442203120791
ONEWEB-0302             
1 49091U 21075S   24031.80138653  .00000389  00000+0  10469-2 0  9993
2 49091  87.9033 163.2522 0001325  98.7807 261.3472 13.12446135120778
ONEWEB-0304             
1 49092U 21075T   24031.44616236  .00000059  00000+0  11913-3 0  9992
2 49092  87.9232 178.4298 0001225  95.7148 264.4123 13.17649759119308
ONEWEB-0305             
1 49093U 21075U   24031.81791744  .00000149  00000+0  34982-3 0  9993
2 49093  87.9227 178.3466 0000983 108.5888 251.5350 13.17650207119380
ONEWEB-0308             
1 49094U 21075V   24031.79501551  .00000010  00000+0 -87441-5 0  9994
2 49094  87.9032 163.2542 0001615 105.0967 255.0341 13.12443044120785
